ONEWEB-0012             
1 44057U 19010A   25185.33910458 -.00000017  00000+0 -77790-4 0  9998
2 44057  87.9051 298.1345 0001964 116.6769 243.4563 13.16596018305791
ONEWEB-0010             
1 44058U 19010B   25185.36442644  .00000040  00000+0  71878-4 0  9994
2 44058  87.9052 298.1131 0002362  97.5135 262.6265 13.16593474305844
ONEWEB-0008             
1 44059U 19010C   25185.38975580  .00000080  00000+0  17499-3 0  9999
2 44059  87.9052 298.1067 0001737  96.6611 263.4717 13.16595769305960
ONEWEB-0007             
1 44060U 19010D   25185.45282897  .00000090  00000+0  20617-3 0  9998
2 44060  87.9071 328.5540 0002140 103.6734 256.4635 13.15547833305656
ONEWEB-0006             
1 44061U 19010E   25185.45678093  .00000108  00000+0  25227-3 0  9998
2 44061  87.9060 328.4991 0002124  98.6409 261.4962 13.15549222305707
ONEWEB-0011             
1 44062U 19010F   25185.42510383 -.00000103  00000+0 -30816-3 0  9990
2 44062  87.9063 328.5147 0001943  90.2057 269.9296 13.15549009305694
ONEWEB-0013             
1 45131U 20008A   25185.34381837  .00000539  00000+0  15276-2 0  9991
2 45131  87.8572 123.0386 0001521 107.6509 252.4784 13.09430526260545
ONEWEB-0017             
1 45132U 20008B   25185.34401377 -.00000524  00000+0 -15376-2 0  9991
2 45132  87.8828 105.6455 0002193  74.9691 285.1679 13.10372511262399
